[{"OBJECT_NAME":"STARLINK-34072","OBJECT_ID":"2025-110F","EPOCH":"2025-07-28T06:00:02.000160","MEAN_MOTION":15.39580714,"ECCENTRICITY":0.000119,"INCLINATION":53.1603,"RA_OF_ASC_NODE":356.4236,"ARG_OF_PERICENTER":93.908,"MEAN_ANOMALY":100.3737,"EPHEMERIS_TYPE":0,"CLASSIFICATION_TYPE":"U","NORAD_CAT_ID":64101,"ELEMENT_SET_NO":999,"REV_AT_EPOCH":1131,"BSTAR":0.0016794,"MEAN_MOTION_DOT":0.00067283,"MEAN_MOTION_DDOT":0},{"OBJECT_NAME":"STARLINK-34104","OBJECT_ID":"2025-110G","EPOCH":"2025-07-28T09:43:50.820384","MEAN_MOTION":15.3963943,"ECCENTRICITY":0.0001235,"INCLINATION":53.1614,"RA_OF_ASC_NODE":355.6436,"ARG_OF_PERICENTER":101.0765,"MEAN_ANOMALY":259.0379,"EPHEMERIS_TYPE":0,"CLASSIFICATION_TYPE":"U","NORAD_CAT_ID":64102,"ELEMENT_SET_NO":999,"REV_AT_EPOCH":1134,"BSTAR":0.0013106,"MEAN_MOTION_DOT":0.00052418,"MEAN_MOTION_DDOT":0},{"OBJECT_NAME":"STARLINK-34179","OBJECT_ID":"2025-110H","EPOCH":"2025-07-28T09:37:09.979680","MEAN_MOTION":15.39626089,"ECCENTRICITY":0.0001492,"INCLINATION":53.1606,"RA_OF_ASC_NODE":355.6146,"ARG_OF_PERICENTER":92.3628,"MEAN_ANOMALY":267.7547,"EPHEMERIS_TYPE":0,"CLASSIFICATION_TYPE":"U","NORAD_CAT_ID":64103,"ELEMENT_SET_NO":999,"REV_AT_EPOCH":1134,"BSTAR":0.0021276,"MEAN_MOTION_DOT":0.00085682,"MEAN_MOTION_DDOT":0},{"OBJECT_NAME":"STARLINK-34176","OBJECT_ID":"2025-110J","EPOCH":"2025-07-28T03:16:33.956832","MEAN_MOTION":15.39636271,"ECCENTRICITY":0.0001453,"INCLINATION":53.1622,"RA_OF_ASC_NODE":356.8085,"ARG_OF_PERICENTER":84.5434,"MEAN_ANOMALY":275.5737,"EPHEMERIS_TYPE":0,"CLASSIFICATION_TYPE":"U","NORAD_CAT_ID":64104,"ELEMENT_SET_NO":999,"REV_AT_EPOCH":1130,"BSTAR":0.00070551,"MEAN_MOTION_DOT":0.00027939,"MEAN_MOTION_DDOT":0},{"OBJECT_NAME":"STARLINK-33949","OBJECT_ID":"2025-110K","EPOCH":"2025-07-27T19:28:41.604960","MEAN_MOTION":15.39622295,"ECCENTRICITY":0.0001296,"INCLINATION":53.1612,"RA_OF_ASC_NODE":358.3345,"ARG_OF_PERICENTER":80.354,"MEAN_ANOMALY":279.7611,"EPHEMERIS_TYPE":0,"CLASSIFICATION_TYPE":"U","NORAD_CAT_ID":64105,"ELEMENT_SET_NO":999,"REV_AT_EPOCH":1135,"BSTAR":0.00053874,"MEAN_MOTION_DOT":0.00021211,"MEAN_MOTION_DDOT":0},{"OBJECT_NAME":"STARLINK-33970","OBJECT_ID":"2025-110L","EPOCH":"2025-07-27T20:55:29.026272","MEAN_MOTION":15.39620804,"ECCENTRICITY":0.0001277,"INCLINATION":53.1606,"RA_OF_ASC_NODE":357.999,"ARG_OF_PERICENTER":98.6297,"MEAN_ANOMALY":261.4853,"EPHEMERIS_TYPE":0,"CLASSIFICATION_TYPE":"U","NORAD_CAT_ID":64106,"ELEMENT_SET_NO":999,"REV_AT_EPOCH":1126,"BSTAR":0.00097477,"MEAN_MOTION_DOT":0.0003879,"MEAN_MOTION_DDOT":0},{"OBJECT_NAME":"STARLINK-33912","OBJECT_ID":"2025-110M","EPOCH":"2025-07-27T19:15:48.051936","MEAN_MOTION":15.39624359,"ECCENTRICITY":0.0001046,"INCLINATION":53.161,"RA_OF_ASC_NODE":358.2768,"ARG_OF_PERICENTER":81.5613,"MEAN_ANOMALY":278.5511,"EPHEMERIS_TYPE":0,"CLASSIFICATION_TYPE":"U","NORAD_CAT_ID":64107,"ELEMENT_SET_NO":999,"REV_AT_EPOCH":1135,"BSTAR":0.00036561,"MEAN_MOTION_DOT":0.00014254,"MEAN_MOTION_DDOT":0},{"OBJECT_NAME":"STARLINK-34156","OBJECT_ID":"2025-110N","EPOCH":"2025-07-27T19:08:38.175648","MEAN_MOTION":15.39616417,"ECCENTRICITY":0.000142,"INCLINATION":53.1607,"RA_OF_ASC_NODE":358.2464,"ARG_OF_PERICENTER":72.6785,"MEAN_ANOMALY":287.4375,"EPHEMERIS_TYPE":0,"CLASSIFICATION_TYPE":"U","NORAD_CAT_ID":64108,"ELEMENT_SET_NO":999,"REV_AT_EPOCH":1135,"BSTAR":0.0012526,"MEAN_MOTION_DOT":0.00050027,"MEAN_MOTION_DDOT":0},{"OBJECT_NAME":"STARLINK-34124","OBJECT_ID":"2025-110P","EPOCH":"2025-07-27T19:02:25.802016","MEAN_MOTION":15.39626148,"ECCENTRICITY":0.0001399,"INCLINATION":53.1606,"RA_OF_ASC_NODE":358.2183,"ARG_OF_PERICENTER":94.8657,"MEAN_ANOMALY":265.2508,"EPHEMERIS_TYPE":0,"CLASSIFICATION_TYPE":"U","NORAD_CAT_ID":64109,"ELEMENT_SET_NO":999,"REV_AT_EPOCH":1135,"BSTAR":0.00049937,"MEAN_MOTION_DOT":0.0001963,"MEAN_MOTION_DDOT":0},{"OBJECT_NAME":"STARLINK-34145","OBJECT_ID":"2025-110Q","EPOCH":"2025-07-28T09:23:47.220864","MEAN_MOTION":15.39638916,"ECCENTRICITY":0.0001493,"INCLINATION":53.1612,"RA_OF_ASC_NODE":355.5548,"ARG_OF_PERICENTER":69.981,"MEAN_ANOMALY":290.1355,"EPHEMERIS_TYPE":0,"CLASSIFICATION_TYPE":"U","NORAD_CAT_ID":64110,"ELEMENT_SET_NO":999,"REV_AT_EPOCH":1134,"BSTAR":0.00083061,"MEAN_MOTION_DOT":0.00032989,"MEAN_MOTION_DDOT":0},{"OBJECT_NAME":"STARLINK-34148","OBJECT_ID":"2025-110R","EPOCH":"2025-07-28T10:36:42.837408","MEAN_MOTION":15.39653446,"ECCENTRICITY":9.64e-5,"INCLINATION":53.1596,"RA_OF_ASC_NODE":355.1576,"ARG_OF_PERICENTER":99.1033,"MEAN_ANOMALY":261.0081,"EPHEMERIS_TYPE":0,"CLASSIFICATION_TYPE":"U","NORAD_CAT_ID":64111,"ELEMENT_SET_NO":999,"REV_AT_EPOCH":1135,"BSTAR":0.0011044,"MEAN_MOTION_DOT":0.0004408,"MEAN_MOTION_DDOT":0},{"OBJECT_NAME":"STARLINK-34136","OBJECT_ID":"2025-110S","EPOCH":"2025-07-27T19:09:07.046208","MEAN_MOTION":15.39624763,"ECCENTRICITY":9.72e-5,"INCLINATION":53.1611,"RA_OF_ASC_NODE":358.2445,"ARG_OF_PERICENTER":88.9022,"MEAN_ANOMALY":271.2094,"EPHEMERIS_TYPE":0,"CLASSIFICATION_TYPE":"U","NORAD_CAT_ID":64112,"ELEMENT_SET_NO":999,"REV_AT_EPOCH":1135,"BSTAR":0.00053881,"MEAN_MOTION_DOT":0.00021216,"MEAN_MOTION_DDOT":0},{"OBJECT_NAME":"STARLINK-33839","OBJECT_ID":"2025-110T","EPOCH":"2025-07-28T08:56:33.198144","MEAN_MOTION":15.39641504,"ECCENTRICITY":0.0001329,"INCLINATION":53.1588,"RA_OF_ASC_NODE":355.435,"ARG_OF_PERICENTER":61.8338,"MEAN_ANOMALY":298.2801,"EPHEMERIS_TYPE":0,"CLASSIFICATION_TYPE":"U","NORAD_CAT_ID":64113,"ELEMENT_SET_NO":999,"REV_AT_EPOCH":1134,"BSTAR":0.00095305,"MEAN_MOTION_DOT":0.00037938,"MEAN_MOTION_DDOT":0},{"OBJECT_NAME":"STARLINK-34064","OBJECT_ID":"2025-110U","EPOCH":"2025-07-27T19:15:19.310112","MEAN_MOTION":15.39616309,"ECCENTRICITY":0.0001379,"INCLINATION":53.1619,"RA_OF_ASC_NODE":358.273,"ARG_OF_PERICENTER":81.9193,"MEAN_ANOMALY":278.1969,"EPHEMERIS_TYPE":0,"CLASSIFICATION_TYPE":"U","NORAD_CAT_ID":64114,"ELEMENT_SET_NO":999,"REV_AT_EPOCH":1135,"BSTAR":0.00028884,"MEAN_MOTION_DOT":0.00011169,"MEAN_MOTION_DDOT":0},{"OBJECT_NAME":"STARLINK-34067","OBJECT_ID":"2025-110V","EPOCH":"2025-07-28T10:23:49.726752","MEAN_MOTION":15.396381,"ECCENTRICITY":0.000112,"INCLINATION":53.1606,"RA_OF_ASC_NODE":355.105,"ARG_OF_PERICENTER":84.54,"MEAN_ANOMALY":275.5733,"EPHEMERIS_TYPE":0,"CLASSIFICATION_TYPE":"U","NORAD_CAT_ID":64115,"ELEMENT_SET_NO":999,"REV_AT_EPOCH":1135,"BSTAR":0.00083882,"MEAN_MOTION_DOT":0.00033319,"MEAN_MOTION_DDOT":0},{"OBJECT_NAME":"STARLINK-34080","OBJECT_ID":"2025-110W","EPOCH":"2025-07-28T06:00:02.000160","MEAN_MOTION":15.39576558,"ECCENTRICITY":0.000118,"INCLINATION":53.1594,"RA_OF_ASC_NODE":355.9596,"ARG_OF_PERICENTER":97.9494,"MEAN_ANOMALY":328.099,"EPHEMERIS_TYPE":0,"CLASSIFICATION_TYPE":"U","NORAD_CAT_ID":64116,"ELEMENT_SET_NO":999,"REV_AT_EPOCH":1132,"BSTAR":0.0016568,"MEAN_MOTION_DOT":0.00066355,"MEAN_MOTION_DDOT":0},{"OBJECT_NAME":"STARLINK-34122","OBJECT_ID":"2025-110X","EPOCH":"2025-07-27T17:08:52.600416","MEAN_MOTION":15.39614158,"ECCENTRICITY":0.0001148,"INCLINATION":53.1597,"RA_OF_ASC_NODE":358.4355,"ARG_OF_PERICENTER":81.1075,"MEAN_ANOMALY":279.006,"EPHEMERIS_TYPE":0,"CLASSIFICATION_TYPE":"U","NORAD_CAT_ID":64117,"ELEMENT_SET_NO":999,"REV_AT_EPOCH":1134,"BSTAR":-0.000338,"MEAN_MOTION_DOT":-0.00013891,"MEAN_MOTION_DDOT":0},{"OBJECT_NAME":"STARLINK-33964","OBJECT_ID":"2025-110Y","EPOCH":"2025-07-28T14:00:01.999872","MEAN_MOTION":15.39623115,"ECCENTRICITY":0.0001269,"INCLINATION":53.1598,"RA_OF_ASC_NODE":354.4438,"ARG_OF_PERICENTER":85.7873,"MEAN_ANOMALY":1.2179,"EPHEMERIS_TYPE":0,"CLASSIFICATION_TYPE":"U","NORAD_CAT_ID":64118,"ELEMENT_SET_NO":999,"REV_AT_EPOCH":1137,"BSTAR":-0.0002105,"MEAN_MOTION_DOT":-8.81e-5,"MEAN_MOTION_DDOT":0},{"OBJECT_NAME":"STARLINK-34160","OBJECT_ID":"2025-110Z","EPOCH":"2025-07-28T13:23:36.969792","MEAN_MOTION":15.39625195,"ECCENTRICITY":0.0001142,"INCLINATION":53.16,"RA_OF_ASC_NODE":354.4581,"ARG_OF_PERICENTER":73.4723,"MEAN_ANOMALY":286.6408,"EPHEMERIS_TYPE":0,"CLASSIFICATION_TYPE":"U","NORAD_CAT_ID":64119,"ELEMENT_SET_NO":999,"REV_AT_EPOCH":1137,"BSTAR":0.0010204,"MEAN_MOTION_DOT":0.0004064,"MEAN_MOTION_DDOT":0},{"OBJECT_NAME":"STARLINK-34151","OBJECT_ID":"2025-110AA","EPOCH":"2025-07-28T13:10:43.290624","MEAN_MOTION":15.39623268,"ECCENTRICITY":0.0001174,"INCLINATION":53.1602,"RA_OF_ASC_NODE":354.3978,"ARG_OF_PERICENTER":80.7541,"MEAN_ANOMALY":279.3597,"EPHEMERIS_TYPE":0,"CLASSIFICATION_TYPE":"U","NORAD_CAT_ID":64120,"ELEMENT_SET_NO":999,"REV_AT_EPOCH":1136,"BSTAR":0.00061818,"MEAN_MOTION_DOT":0.00024409,"MEAN_MOTION_DDOT":0},{"OBJECT_NAME":"STARLINK-34189","OBJECT_ID":"2025-110AB","EPOCH":"2025-07-28T13:10:14.216160","MEAN_MOTION":15.39619435,"ECCENTRICITY":0.0001115,"INCLINATION":53.1607,"RA_OF_ASC_NODE":354.3961,"ARG_OF_PERICENTER":67.597,"MEAN_ANOMALY":292.5153,"EPHEMERIS_TYPE":0,"CLASSIFICATION_TYPE":"U","NORAD_CAT_ID":64121,"ELEMENT_SET_NO":999,"REV_AT_EPOCH":1137,"BSTAR":0.00087731,"MEAN_MOTION_DOT":0.00034852,"MEAN_MOTION_DDOT":0},{"OBJECT_NAME":"STARLINK-33991","OBJECT_ID":"2025-110AC","EPOCH":"2025-07-28T13:17:24.364608","MEAN_MOTION":15.3961551,"ECCENTRICITY":0.0001286,"INCLINATION":53.1602,"RA_OF_ASC_NODE":354.4293,"ARG_OF_PERICENTER":60.0058,"MEAN_ANOMALY":300.1074,"EPHEMERIS_TYPE":0,"CLASSIFICATION_TYPE":"U","NORAD_CAT_ID":64122,"ELEMENT_SET_NO":999,"REV_AT_EPOCH":1137,"BSTAR":0.00037074,"MEAN_MOTION_DOT":0.00014456,"MEAN_MOTION_DDOT":0},{"OBJECT_NAME":"STARLINK-11727 [DTC]","OBJECT_ID":"2025-111A","EPOCH":"2025-07-28T02:26:54.514176","MEAN_MOTION":15.70938968,"ECCENTRICITY":0.0003571,"INCLINATION":42.998,"RA_OF_ASC_NODE":247.925,"ARG_OF_PERICENTER":287.459,"MEAN_ANOMALY":72.5887,"EPHEMERIS_TYPE":0,"CLASSIFICATION_TYPE":"U","NORAD_CAT_ID":64123,"ELEMENT_SET_NO":999,"REV_AT_EPOCH":1131,"BSTAR":0.0013283,"MEAN_MOTION_DOT":0.00174368,"MEAN_MOTION_DDOT":0}]
